[
  {
    "name": "ONEWEB-0395",
    "noradId": "50475",
    "line1": "1 50475U 21132G   26179.91675276  .00000382  00000+0  10432-2 0  9992",
    "line2": "2 50475  87.8880  18.7315 0002081  87.4962 272.6404 13.11417650217255"
  },
  {
    "name": "ONEWEB-0396",
    "noradId": "50476",
    "line1": "1 50476U 21132H   26179.92810477  .00000024  00000+0  29336-4 0  9996",
    "line2": "2 50476  87.9181 333.1192 0001826  89.4145 270.7196 13.18685489223189"
  },
  {
    "name": "ONEWEB-0397",
    "noradId": "50477",
    "line1": "1 50477U 21132J   26179.94327916 -.00000019  00000+0 -80332-4 0  9999",
    "line2": "2 50477  87.9179 333.1163 0001718  88.9209 271.2120 13.18685820223160"
  },
  {
    "name": "ONEWEB-0398",
    "noradId": "50478",
    "line1": "1 50478U 21132K   26179.96081993 -.00000446  00000+0 -12931-2 0  9996",
    "line2": "2 50478  87.8884  18.7142 0002092  92.6400 267.4967 13.11416423217159"
  },
  {
    "name": "ONEWEB-0399",
    "noradId": "50479",
    "line1": "1 50479U 21132L   26179.94726524 -.00000053  00000+0 -18595-3 0  9998",
    "line2": "2 50479  87.8885  18.7280 0001904  73.0863 287.0474 13.11415150217147"
  },
  {
    "name": "ONEWEB-0400",
    "noradId": "50480",
    "line1": "1 50480U 21132M   26179.92136122  .00000011  00000+0 -46489-5 0  9995",
    "line2": "2 50480  87.9180 333.1104 0002010  97.8890 262.2471 13.18685987223154"
  },
  {
    "name": "ONEWEB-0401",
    "noradId": "50481",
    "line1": "1 50481U 21132N   26179.89101024  .00000009  00000+0 -10500-4 0  9996",
    "line2": "2 50481  87.9182 333.1136 0001598  96.4180 263.7135 13.18686047223150"
  },
  {
    "name": "ONEWEB-0402",
    "noradId": "50482",
    "line1": "1 50482U 21132P   26179.92979247  .00000047  00000+0  87103-4 0  9995",
    "line2": "2 50482  87.9179 333.0951 0001369  93.1240 267.0049 13.18686236223182"
  },
  {
    "name": "ONEWEB-0403",
    "noradId": "50483",
    "line1": "1 50483U 21132Q   26179.87920731 -.00000014  00000+0 -68390-4 0  9997",
    "line2": "2 50483  87.9181 333.1295 0001912  91.3391 268.7960 13.18685694223131"
  },
  {
    "name": "ONEWEB-0404",
    "noradId": "50484",
    "line1": "1 50484U 21132R   26179.77601923  .00000599  00000+0  16537-2 0  9996",
    "line2": "2 50484  87.8882  18.7598 0002043  80.7380 279.3979 13.11417671217218"
  },
  {
    "name": "ONEWEB-0405",
    "noradId": "50485",
    "line1": "1 50485U 21132S   26179.89267587  .00001207  00000+0  30279-2 0  9990",
    "line2": "2 50485  87.9183 333.1115 0002185 102.9697 257.1679 13.18676661223534"
  },
  {
    "name": "ONEWEB-0406",
    "noradId": "50486",
    "line1": "1 50486U 21132T   26179.88426408  .00000000  00000+0 -31752-4 0  9999",
    "line2": "2 50486  87.9176 333.1290 0002129  81.7807 278.3567 13.18685762223168"
  },
  {
    "name": "ONEWEB-0407",
    "noradId": "50487",
    "line1": "1 50487U 21132U   26179.95339995  .00000028  00000+0  38336-4 0  9996",
    "line2": "2 50487  87.9181 333.1078 0001739 100.9527 259.1801 13.18687361223118"
  },
  {
    "name": "ONEWEB-0409",
    "noradId": "50488",
    "line1": "1 50488U 21132V   26179.54543863  .00000562  00000+0  15511-2 0  9994",
    "line2": "2 50488  87.8888  18.7944 0002083  83.7972 276.3393 13.11415937217071"
  },
  {
    "name": "ONEWEB-0412",
    "noradId": "50489",
    "line1": "1 50489U 21132W   26179.94159210 -.00000022  00000+0 -88329-4 0  9990",
    "line2": "2 50489  87.9177 333.1183 0001549  94.3255 265.8055 13.18685206223206"
  },
  {
    "name": "ONEWEB-0413",
    "noradId": "50490",
    "line1": "1 50490U 21132X   26179.94665970  .00000004  00000+0 -22256-4 0  9993",
    "line2": "2 50490  87.9169 333.1151 0001571 100.2971 259.8338 13.18686991223143"
  },
  {
    "name": "ONEWEB-0414",
    "noradId": "50491",
    "line1": "1 50491U 21132Y   26179.93147848 -.00000047  00000+0 -15121-3 0  9992",
    "line2": "2 50491  87.9180 333.1011 0001730  91.2764 268.8567 13.18685510223171"
  },
  {
    "name": "ONEWEB-0417",
    "noradId": "50492",
    "line1": "1 50492U 21132Z   26179.93990636  .00000011  00000+0 -46914-5 0  9990",
    "line2": "2 50492  87.9170 333.1181 0002003  90.0360 270.1001 13.18685908223150"
  },
  {
    "name": "ONEWEB-0418",
    "noradId": "50493",
    "line1": "1 50493U 21132AA  26179.94987777 -.00000031  00000+0 -11141-3 0  9999",
    "line2": "2 50493  87.9176 333.1166 0002043  89.4408 270.6958 13.18684930223216"
  },
  {
    "name": "ONEWEB-0419",
    "noradId": "50494",
    "line1": "1 50494U 21132AB  26179.89278268  .00000023  00000+0  25407-4 0  9992",
    "line2": "2 50494  87.9180 333.1276 0002150  95.0513 265.0865 13.18666300223129"
  },
  {
    "name": "ONEWEB-0420",
    "noradId": "50495",
    "line1": "1 50495U 21132AC  26179.93315482  .00000007  00000+0 -15289-4 0  9998",
    "line2": "2 50495  87.9172 333.1217 0001775 101.2692 258.8640 13.18685996223129"
  },
  {
    "name": "ONEWEB-0421",
    "noradId": "50496",
    "line1": "1 50496U 21132AD  26179.92642301  .00000774  00000+0  19296-2 0  9991",
    "line2": "2 50496  87.9174 333.1209 0001645  85.7051 274.4269 13.18681422223169"
  },
  {
    "name": "ONEWEB-0424",
    "noradId": "50497",
    "line1": "1 50497U 21132AE  26179.88763908  .00000014  00000+0  25817-5 0  9990",
    "line2": "2 50497  87.9179 333.1272 0002195  98.0319 262.1063 13.18686089223182"
  },
  {
    "name": "ONEWEB-0426",
    "noradId": "50498",
    "line1": "1 50498U 21132AF  26179.92219900  .00000069  00000+0  14203-3 0  9999",
    "line2": "2 50498  87.9180 333.1114 0001867  73.5226 286.6111 13.18684729223139"
  },
  {
    "name": "ONEWEB-0427",
    "noradId": "50499",
    "line1": "1 50499U 21132AG  26179.88595398 -.00000023  00000+0 -91091-4 0  9996",
    "line2": "2 50499  87.9182 333.1075 0001953  89.6059 270.5297 13.18685762223153"
  },
  {
    "name": "ONEWEB-0429",
    "noradId": "50500",
    "line1": "1 50500U 21132AH  26179.94833490 -.00000013  00000+0 -65691-4 0  9990",
    "line2": "2 50500  87.9173 333.1186 0001773  98.4061 261.7273 13.18685638223136"
  },
  {
    "name": "ONEWEB-0430",
    "noradId": "50501",
    "line1": "1 50501U 21132AJ  26179.93654251  .00000611  00000+0  15176-2 0  9999",
    "line2": "2 50501  87.9171 333.1196 0001795 104.7119 255.4212 13.18684875223174"
  },
  {
    "name": "ONEWEB-0432",
    "noradId": "50502",
    "line1": "1 50502U 21132AK  26179.84149059  .00009808  00000+0  25353-1 0  9999",
    "line2": "2 50502  87.9191 333.1233 0003130  99.3895 260.7590 13.17237683223116"
  },
  {
    "name": "ONEWEB-0440",
    "noradId": "50503",
    "line1": "1 50503U 21132AL  26179.95676641 -.00000011  00000+0 -59605-4 0  9993",
    "line2": "2 50503  87.9181 333.1123 0001516  96.2363 263.8942 13.18685751223126"
  },
  {
    "name": "ONEWEB-0450",
    "noradId": "50504",
    "line1": "1 50504U 21132AM  26179.95016277 -.00000022  00000+0 -88868-4 0  9992",
    "line2": "2 50504  87.9171 333.1176 0001784 101.4682 258.6651 13.18686120223157"
  }
]