OBJECT_NAME,OBJECT_ID,EPOCH,MEAN_MOTION,ECCENTRICITY,INCLINATION,RA_OF_ASC_NODE,ARG_OF_PERICENTER,MEAN_ANOMALY,EPHEMERIS_TYPE,CLASSIFICATION_TYPE,NORAD_CAT_ID,ELEMENT_SET_NO,REV_AT_EPOCH,BSTAR,MEAN_MOTION_DOT,MEAN_MOTION_DDOT
ONEWEB-0395,2021-132G,2026-06-28T22:00:07.438464,13.11417650,.00020812,87.8880,18.7315,87.4962,272.6404,0,U,50475,999,21725,.10432384E-2,.382E-5,0
ONEWEB-0396,2021-132H,2026-06-28T22:16:28.252128,13.18685489,.00018267,87.9181,333.1192,89.4145,270.7196,0,U,50476,999,22318,.29335929E-4,.24E-6,0
ONEWEB-0397,2021-132J,2026-06-28T22:38:19.319424,13.18685820,.00017183,87.9179,333.1163,88.9209,271.2120,0,U,50477,999,22316,-.80332226E-4,-.19E-6,0
ONEWEB-0398,2021-132K,2026-06-28T23:03:34.841952,13.11416423,.00020929,87.8884,18.7142,92.6400,267.4967,0,U,50478,999,21715,-.12930888E-2,-.446E-5,0
ONEWEB-0399,2021-132L,2026-06-28T22:44:03.716736,13.11415150,.00019047,87.8885,18.7280,73.0863,287.0474,0,U,50479,999,21714,-.18595317E-3,-.53E-6,0
ONEWEB-0400,2021-132M,2026-06-28T22:06:45.609408,13.18685987,.00020105,87.9180,333.1104,97.8890,262.2471,0,U,50480,999,22315,-.4648894E-5,.11E-6,0
ONEWEB-0401,2021-132N,2026-06-28T21:23:03.284736,13.18686047,.00015989,87.9182,333.1136,96.4180,263.7135,0,U,50481,999,22315,-.104995E-4,.9E-7,0
ONEWEB-0402,2021-132P,2026-06-28T22:18:54.069408,13.18686236,.00013694,87.9179,333.0951,93.1240,267.0049,0,U,50482,999,22318,.8710272E-4,.47E-6,0
ONEWEB-0403,2021-132Q,2026-06-28T21:06:03.511584,13.18685694,.00019125,87.9181,333.1295,91.3391,268.7960,0,U,50483,999,22313,-.68390033E-4,-.14E-6,0
ONEWEB-0404,2021-132R,2026-06-28T18:37:28.061472,13.11417671,.00020437,87.8882,18.7598,80.7380,279.3979,0,U,50484,999,21721,.16537028E-2,.599E-5,0
ONEWEB-0405,2021-132S,2026-06-28T21:25:27.195168,13.18676661,.00021854,87.9183,333.1115,102.9697,257.1679,0,U,50485,999,22353,.30279414E-2,.1207E-4,0
ONEWEB-0406,2021-132T,2026-06-28T21:13:20.416512,13.18685762,.00021297,87.9176,333.1290,81.7807,278.3567,0,U,50486,999,22316,-.31752066E-4,0,0
ONEWEB-0407,2021-132U,2026-06-28T22:52:53.755680,13.18687361,.00017391,87.9181,333.1078,100.9527,259.1801,0,U,50487,999,22311,.3833631E-4,.28E-6,0
ONEWEB-0409,2021-132V,2026-06-28T13:05:25.897632,13.11415937,.0002083,87.8888,18.7944,83.7972,276.3393,0,U,50488,999,21707,.1551116E-2,.562E-5,0
ONEWEB-0412,2021-132W,2026-06-28T22:35:53.557440,13.18685206,.00015497,87.9177,333.1183,94.3255,265.8055,0,U,50489,999,22320,-.88328734E-4,-.22E-6,0
ONEWEB-0413,2021-132X,2026-06-28T22:43:11.398080,13.18686991,.00015713,87.9169,333.1151,100.2971,259.8338,0,U,50490,999,22314,-.22255775E-4,.4E-7,0
ONEWEB-0414,2021-132Y,2026-06-28T22:21:19.740672,13.18685510,.00017302,87.9180,333.1011,91.2764,268.8567,0,U,50491,999,22317,-.15121337E-3,-.47E-6,0
ONEWEB-0417,2021-132Z,2026-06-28T22:33:27.909504,13.18685908,.00020035,87.9170,333.1181,90.0360,270.1001,0,U,50492,999,22315,-.4691393E-5,.11E-6,0
ONEWEB-0418,2021-132AA,2026-06-28T22:47:49.439328,13.18684930,.00020432,87.9176,333.1166,89.4408,270.6958,0,U,50493,999,22321,-.11140582E-3,-.31E-6,0
ONEWEB-0419,2021-132AB,2026-06-28T21:25:36.423552,13.18666300,.000215,87.9180,333.1276,95.0513,265.0865,0,U,50494,999,22312,.25407106E-4,.23E-6,0
ONEWEB-0420,2021-132AC,2026-06-28T22:23:44.576448,13.18685996,.00017757,87.9172,333.1217,101.2692,258.8640,0,U,50495,999,22312,-.15288797E-4,.7E-7,0
ONEWEB-0421,2021-132AD,2026-06-28T22:14:02.948064,13.18681422,.00016453,87.9174,333.1209,85.7051,274.4269,0,U,50496,999,22316,.19296437E-2,.774E-5,0
ONEWEB-0424,2021-132AE,2026-06-28T21:18:12.016512,13.18686089,.00021954,87.9179,333.1272,98.0319,262.1063,0,U,50497,999,22318,.2581674E-5,.14E-6,0
ONEWEB-0426,2021-132AF,2026-06-28T22:07:57.993600,13.18684729,.00018678,87.9180,333.1114,73.5226,286.6111,0,U,50498,999,22313,.14202915E-3,.69E-6,0
ONEWEB-0427,2021-132AG,2026-06-28T21:15:46.423872,13.18685762,.00019539,87.9182,333.1075,89.6059,270.5297,0,U,50499,999,22315,-.9109074E-4,-.23E-6,0
ONEWEB-0429,2021-132AH,2026-06-28T22:45:36.135360,13.18685638,.00017736,87.9173,333.1186,98.4061,261.7273,0,U,50500,999,22313,-.65691316E-4,-.13E-6,0
ONEWEB-0430,2021-132AJ,2026-06-28T22:28:37.272864,13.18684875,.00017951,87.9171,333.1196,104.7119,255.4212,0,U,50501,999,22317,.15176288E-2,.611E-5,0
ONEWEB-0432,2021-132AK,2026-06-28T20:11:44.786976,13.17237683,.00031309,87.9191,333.1233,99.3895,260.7590,0,U,50502,999,22311,.25353201E-1,.9808E-4,0
ONEWEB-0440,2021-132AL,2026-06-28T22:57:44.617824,13.18685751,.0001516,87.9181,333.1123,96.2363,263.8942,0,U,50503,999,22312,-.59605213E-4,-.11E-6,0
ONEWEB-0450,2021-132AM,2026-06-28T22:48:14.063328,13.18686120,.00017846,87.9171,333.1176,101.4682,258.6651,0,U,50504,999,22315,-.88867771E-4,-.22E-6,0
